[{"OBJECT_NAME":"STARLINK-3896","OBJECT_ID":"2022-049F","EPOCH":"2026-03-09T05:37:40.826784","MEAN_MOTION":15.08830227,"ECCENTRICITY":0.00013403,"INCLINATION":53.2162,"RA_OF_ASC_NODE":71.1643,"ARG_OF_PERICENTER":88.6159,"MEAN_ANOMALY":271.4987,"EPHEMERIS_TYPE":0,"CLASSIFICATION_TYPE":"U","NORAD_CAT_ID":52456,"ELEMENT_SET_NO":999,"REV_AT_EPOCH":21204,"BSTAR":-0.00016661055,"MEAN_MOTION_DOT":-2.938e-5,"MEAN_MOTION_DDOT":0},{"OBJECT_NAME":"CZ-6A DEB","OBJECT_ID":"2024-140NU","EPOCH":"2026-03-09T12:31:51.442752","MEAN_MOTION":14.86441835,"ECCENTRICITY":0.01338094,"INCLINATION":88.7229,"RA_OF_ASC_NODE":259.52,"ARG_OF_PERICENTER":124.7168,"MEAN_ANOMALY":236.6749,"EPHEMERIS_TYPE":0,"CLASSIFICATION_TYPE":"U","NORAD_CAT_ID":61102,"ELEMENT_SET_NO":999,"REV_AT_EPOCH":8243,"BSTAR":0.0019148109,"MEAN_MOTION_DOT":0.00019972,"MEAN_MOTION_DDOT":0}]
